{
  "type": "FeatureCollection",
  "features": [
    {
      "type": "Feature",
      "properties": {
        "norad_id": 37781,
        "name": "HAIYANG-2A",
        "group": "resource",
        "lat": 22.977092646390428,
        "lon": 176.60131726105098,
        "alt_km": 967.2815486693935,
        "timestamp": "2025-12-17T17:50:18.908820+00:00",
        "meta_object_name": "HAIYANG-2A",
        "meta_object_id": "2011-043A",
        "meta_epoch": "2025-12-17T06:37:57.485856",
        "meta_mean_motion": 13.78835166,
        "meta_eccentricity": 0.00016492,
        "meta_inclination": 99.3377,
        "meta_ra_of_asc_node": 352.1413,
        "meta_arg_of_pericenter": 77.3777,
        "meta_mean_anomaly": 282.7559,
        "meta_ephemeris_type": 0,
        "meta_classification_type": "U",
        "meta_norad_cat_id": 37781,
        "meta_element_set_no": 999,
        "meta_rev_at_epoch": 72161,
        "meta_bstar": -0.00013455698,
        "meta_mean_motion_dot": -1.81e-06,
        "meta_mean_motion_ddot": 0,
        "tle_line1": "1 37781U 11043A   25351.27635979 -.00000181  00000+0 -13456-3 0  9992",
        "tle_line2": "2 37781  99.3377 352.1413 0001649  77.3777 282.7559 13.78835166721616"
      },
      "geometry": {
        "type": "Point",
        "coordinates": [
          176.60131726105098,
          22.977092646390428
        ]
      }
    },
    {
      "type": "Feature",
      "properties": {
        "norad_id": 37791,
        "name": "RASAT",
        "group": "resource",
        "lat": 73.20281330194855,
        "lon": 52.91144683956826,
        "alt_km": 646.8776577297685,
        "timestamp": "2025-12-17T17:50:18.908831+00:00",
        "meta_object_name": "RASAT",
        "meta_object_id": "2011-044D",
        "meta_epoch": "2025-12-17T07:59:54.824352",
        "meta_mean_motion": 14.679169,
        "meta_eccentricity": 0.0021717,
        "meta_inclination": 98.0647,
        "meta_ra_of_asc_node": 80.5227,
        "meta_arg_of_pericenter": 51.0848,
        "meta_mean_anomaly": 18.7037,
        "meta_ephemeris_type": 0,
        "meta_classification_type": "U",
        "meta_norad_cat_id": 37791,
        "meta_element_set_no": 999,
        "meta_rev_at_epoch": 76650,
        "meta_bstar": 0.00011710499,
        "meta_mean_motion_dot": 6.23e-06,
        "meta_mean_motion_ddot": 0,
        "tle_line1": "1 37791U 11044D   25351.33327343  .00000623  00000+0  11710-3 0  9994",
        "tle_line2": "2 37791  98.0647  80.5227 0021717  51.0848  18.7037 14.67916900766504"
      },
      "geometry": {
        "type": "Point",
        "coordinates": [
          52.91144683956826,
          73.20281330194855
        ]
      }
    },
    {
      "type": "Feature",
      "properties": {
        "norad_id": 37841,
        "name": "SRMSAT",
        "group": "resource",
        "lat": -1.844146760086005,
        "lon": 72.58372798410548,
        "alt_km": 843.7744878764752,
        "timestamp": "2025-12-17T17:50:18.908842+00:00",
        "meta_object_name": "SRMSAT",
        "meta_object_id": "2011-058D",
        "meta_epoch": "2025-12-17T07:53:39.939936",
        "meta_mean_motion": 14.11513007,
        "meta_eccentricity": 0.00118772,
        "meta_inclination": 19.9719,
        "meta_ra_of_asc_node": 80.1756,
        "meta_arg_of_pericenter": 3.9747,
        "meta_mean_anomaly": 40.6878,
        "meta_ephemeris_type": 0,
        "meta_classification_type": "U",
        "meta_norad_cat_id": 37841,
        "meta_element_set_no": 999,
        "meta_rev_at_epoch": 73209,
        "meta_bstar": 7.6230775e-05,
        "meta_mean_motion_dot": 4.05e-06,
        "meta_mean_motion_ddot": 0,
        "tle_line1": "1 37841U 11058D   25351.32893449  .00000405  00000+0  76231-4 0  9997",
        "tle_line2": "2 37841  19.9719  80.1756 0011877   3.9747  40.6878 14.11513007732099"
      },
      "geometry": {
        "type": "Point",
        "coordinates": [
          72.58372798410548,
          -1.844146760086005
        ]
      }
    },
    {
      "type": "Feature",
      "properties": {
        "norad_id": 38012,
        "name": "PLEIADES 1A",
        "group": "resource",
        "lat": 61.00846491675094,
        "lon": 49.38479939029424,
        "alt_km": 691.0350288227564,
        "timestamp": "2025-12-17T17:50:18.908852+00:00",
        "meta_object_name": "PLEIADES 1A",
        "meta_object_id": "2011-076F",
        "meta_epoch": "2025-12-17T08:01:16.084416",
        "meta_mean_motion": 14.58566164,
        "meta_eccentricity": 0.00011908,
        "meta_inclination": 98.1822,
        "meta_ra_of_asc_node": 64.0318,
        "meta_arg_of_pericenter": 71.4105,
        "meta_mean_anomaly": 4.0968,
        "meta_ephemeris_type": 0,
        "meta_classification_type": "U",
        "meta_norad_cat_id": 38012,
        "meta_element_set_no": 999,
        "meta_rev_at_epoch": 74548,
        "meta_bstar": 8.759955e-05,
        "meta_mean_motion_dot": 3.62e-06,
        "meta_mean_motion_ddot": 0,
        "tle_line1": "1 38012U 11076F   25351.33421394  .00000362  00000+0  87600-4 0  9999",
        "tle_line2": "2 38012  98.1822  64.0318 0001190  71.4105   4.0968 14.58566164745488"
      },
      "geometry": {
        "type": "Point",
        "coordinates": [
          49.38479939029424,
          61.00846491675094
        ]
      }
    },
    {
      "type": "Feature",
      "properties": {
        "norad_id": 38038,
        "name": "ZIYUAN 1-02C (ZY 1-02C)",
        "group": "resource",
        "lat": -39.200164031540744,
        "lon": 64.61432988171839,
        "alt_km": 776.5617206393563,
        "timestamp": "2025-12-17T17:50:18.908863+00:00",
        "meta_object_name": "ZIYUAN 1-02C (ZY 1-02C)",
        "meta_object_id": "2011-079A",
        "meta_epoch": "2025-12-17T08:19:23.257344",
        "meta_mean_motion": 14.38017341,
        "meta_eccentricity": 0.00073375,
        "meta_inclination": 98.4332,
        "meta_ra_of_asc_node": 57.2756,
        "meta_arg_of_pericenter": 126.344,
        "meta_mean_anomaly": 302.738,
        "meta_ephemeris_type": 0,
        "meta_classification_type": "U",
        "meta_norad_cat_id": 38038,
        "meta_element_set_no": 999,
        "meta_rev_at_epoch": 73307,
        "meta_bstar": 0.00013753003,
        "meta_mean_motion_dot": 3.73e-06,
        "meta_mean_motion_ddot": 0,
        "tle_line1": "1 38038U 11079A   25351.34679696  .00000373  00000+0  13753-3 0  9990",
        "tle_line2": "2 38038  98.4332  57.2756 0007337 126.3440 302.7380 14.38017341733070"
      },
      "geometry": {
        "type": "Point",
        "coordinates": [
          64.61432988171839,
          -39.200164031540744
        ]
      }
    },
    {
      "type": "Feature",
      "properties": {
        "norad_id": 38338,
        "name": "ARIRANG-3 (KOMPSAT-3)",
        "group": "resource",
        "lat": 16.085234743740035,
        "lon": -56.05180417248702,
        "alt_km": 686.2210293629059,
        "timestamp": "2025-12-17T17:50:18.908874+00:00",
        "meta_object_name": "ARIRANG-3 (KOMPSAT-3)",
        "meta_object_id": "2012-025B",
        "meta_epoch": "2025-12-17T07:54:25.989408",
        "meta_mean_motion": 14.61718968,
        "meta_eccentricity": 0.00050603,
        "meta_inclination": 98.3328,
        "meta_ra_of_asc_node": 305.9535,
        "meta_arg_of_pericenter": 323.1721,
        "meta_mean_anomaly": 36.9132,
        "meta_ephemeris_type": 0,
        "meta_classification_type": "U",
        "meta_norad_cat_id": 38338,
        "meta_element_set_no": 999,
        "meta_rev_at_epoch": 72477,
        "meta_bstar": 0.00010790412,
        "meta_mean_motion_dot": 4.89e-06,
        "meta_mean_motion_ddot": 0,
        "tle_line1": "1 38338U 12025B   25351.32946747  .00000489  00000+0  10790-3 0  9993",
        "tle_line2": "2 38338  98.3328 305.9535 0005060 323.1721  36.9132 14.61718968724772"
      },
      "geometry": {
        "type": "Point",
        "coordinates": [
          -56.05180417248702,
          16.085234743740035
        ]
      }
    },
    {
      "type": "Feature",
      "properties": {
        "norad_id": 38709,
        "name": "EXACTVIEW-1 (ADS-1B)",
        "group": "resource",
        "lat": 70.2892530411706,
        "lon": 74.09827528932642,
        "alt_km": 802.3236373409964,
        "timestamp": "2025-12-17T17:50:18.908884+00:00",
        "meta_object_name": "EXACTVIEW-1 (ADS-1B)",
        "meta_object_id": "2012-039C",
        "meta_epoch": "2025-12-17T07:23:20.282496",
        "meta_mean_motion": 14.24909841,
        "meta_eccentricity": 0.00104395,
        "meta_inclination": 98.9638,
        "meta_ra_of_asc_node": 99.7937,
        "meta_arg_of_pericenter": 340.7792,
        "meta_mean_anomaly": 19.2991,
        "meta_ephemeris_type": 0,
        "meta_classification_type": "U",
        "meta_norad_cat_id": 38709,
        "meta_element_set_no": 999,
        "meta_rev_at_epoch": 69680,
        "meta_bstar": 6.9344599e-05,
        "meta_mean_motion_dot": 1.16e-06,
        "meta_mean_motion_ddot": 0,
        "tle_line1": "1 38709U 12039C   25351.30787364  .00000116  00000+0  69345-4 0  9994",
        "tle_line2": "2 38709  98.9638  99.7937 0010439 340.7792  19.2991 14.24909841696807"
      },
      "geometry": {
        "type": "Point",
        "coordinates": [
          74.09827528932642,
          70.2892530411706
        ]
      }
    }
  ]
}